COSMOS 2425 (716)       
1 29670U 06062A   21122.73753505  .00000003  00000-0  00000-0 0  9994
2 29670  64.8568 256.9915 0024063 347.3436   9.7136  2.13114890111698
COSMOS 2433 (720)       
1 32275U 07052A   21122.91337091 -.00000090  00000-0  00000-0 0  9994
2 32275  66.0531  18.2986 0001840 285.6832  22.1720  2.13103963105214
COSMOS 2432 (719)       
1 32276U 07052B   21123.28035436 -.00000092  00000-0  00000+0 0  9995
2 32276  66.0692  18.3792 0011181 334.5059 204.2981  2.13103660105220
COSMOS 2434 (721)       
1 32393U 07065A   21122.65428867  .00000002  00000-0  00000-0 0  9994
2 32393  64.4751 255.4733 0004150  88.6122 268.7574  2.13103122103913
COSMOS 2436 (723)       
1 32395U 07065C   21123.09036843 -.00000003  00000-0  00000+0 0  9995
2 32395  64.4851 255.5117 0015132   5.9353 102.1024  2.13103090103862
COSMOS 2456 (730)       
1 36111U 09070A   21122.77969903  .00000060  00000-0  00000-0 0  9992
2 36111  64.2690 135.1488 0006125 303.4253 321.2978  2.13099274 88583
COSMOS 2457 (733)       
1 36112U 09070B   21122.64143631  .00000059  00000-0  00000-0 0  9999
2 36112  64.2510 135.0390 0004603 195.6164  87.0562  2.13101474 88589
COSMOS 2459 (731)       
1 36400U 10007A   21123.11268193 -.00000091  00000-0  00000+0 0  9991
2 36400  65.9522  17.2214 0026642 350.2761 327.2731  2.13108069 86936
COSMOS 2461 (735)       
1 36401U 10007B   21123.11298287 -.00000091  00000-0  00000+0 0  9999
2 36401  65.9476  17.1858 0021850   7.4996 311.5027  2.13103953 86947
COSMOS 2460 (732)       
1 36402U 10007C   21122.71105796 -.00000089  00000-0  00000-0 0  9995
2 36402  65.9345  17.1566 0001944  16.4388 298.5649  2.13106658 86934
COSMOS 2464 (736)       
1 37139U 10041C   21123.04444023 -.00000004  00000-0  00000+0 0  9993
2 37139  64.0742 254.7404 0027952  13.0239 144.9106  2.13100594 83008
COSMOS 2471 (701K)      
1 37372U 11009A   21123.26730191 -.00000092  00000-0  00000+0 0  9992
2 37372  65.9306  17.0761 0013285 229.5371 310.2812  2.13081266 79229
COSMOS 2476 (744)       
1 37867U 11064A   21123.16011286  .00000064  00000-0  00000+0 0  9996
2 37867  64.5644 136.3306 0022280 241.8038 216.7327  2.13101923 73947
COSMOS 2477 (745)       
1 37868U 11064B   21122.52891281  .00000058  00000-0  00000-0 0  9991
2 37868  64.5715 136.4129 0019733 243.0667 269.5722  2.13101756 73884
COSMOS 2475 (743)       
1 37869U 11064C   21122.71414959  .00000060  00000-0  00000-0 0  9999
2 37869  64.5792 136.4109 0024170 260.6992 351.6872  2.13101971 73894
COSMOS 2485 (747)       
1 39155U 13019A   21122.62014219  .00000059  00000-0  00000+0 0  9993
2 39155  64.7300 136.6886 0022660 237.5937 211.1678  2.13101939 62402
COSMOS 2492 (754)       
1 39620U 14012A   21122.88724015 -.00000090  00000-0  00000-0 0  9991
2 39620  65.8228  16.8889 0014309 329.9422 358.5873  2.13103278 55355
COSMOS 2500 (755)       
1 40001U 14032A   21123.04344024 -.00000091  00000-0  00000+0 0  9995
2 40001  65.7626  16.7761 0004475 204.1357 103.9761  2.13102468 53573
COSMOS 2501 (702K)      
1 40315U 14075A   21122.77090876  .00000000  00000-0  00000-0 0  9992
2 40315  63.7847 255.5733 0016321 206.8217  58.3854  2.13101473 49973
COSMOS 2514 (751)       
1 41330U 16008A   21123.10029722 -.00000091  00000-0  00000+0 0  9998
2 41330  65.5654  16.5670 0008273 218.1713 316.6133  2.13103021 40743
COSMOS 2516 (753)       
1 41554U 16032A   21122.83683797 -.00000001  00000-0  00000-0 0  9992
2 41554  64.0114 255.7322 0012553 212.7646  14.1133  2.13106891 38349
COSMOS 2522 (752)       
1 42939U 17055A   21123.03809543 -.00000003  00000-0  00000+0 0  9999
2 42939  64.2440 255.9985 0006109 242.3484   2.8605  2.13101923 28109
COSMOS 2527 (756)       
1 43508U 18053A   21122.56782611  .00000059  00000-0  00000-0 0  9995
2 43508  64.8942 136.6060 0009360 242.5102  33.9855  2.13102626 22382
COSMOS 2529 (757)       
1 43687U 18086A   21123.33977036 -.00000006  00000-0  00000+0 0  9994
2 43687  64.4591 256.1949 0008194 271.7790 160.4218  2.13102161 19425
COSMOS 2534 (758)       
1 44299U 19030A   21122.67337490  .00000002  00000-0  00000-0 0  9990
2 44299  64.5310 256.0644 0011366 293.2138 122.6062  2.13102061 15057
COSMOS 2544 (759)       
1 44850U 19088A   21122.61680664  .00000059  00000-0  00000-0 0  9996
2 44850  64.8786 136.4638 0014127 266.1204  91.7542  2.13102408 10829
COSMOS 2545 (760)       
1 45358U 20018A   21122.57656148 -.00000090  00000-0  00000-0 0  9996
2 45358  64.8968  17.5307 0008005 260.3505 276.7183  2.13102850  8773
